#dP2021  4  7  0  0  0.00000000      97 __u+U IGS14 FIT  IAC
## 2152 259200.00000000   900.00000000 59311 0.0000000000000
+  124   C01C02C03C04C05C06C07C08C09C10C11C12C13C14C16C19C20
+        C21C22C23C24C25C26C27C28C29C30C32C33C34C35C36C37C38
+        C39C40C41C42C43C44C45C46C60E01E02E03E04E05E07E08E09
+        E11E12E13E14E15E18E19E21E24E25E26E27E30E31E33E36G01
+        G02G03G04G05G06G07G08G09G10G11G12G13G14G15G16G17G18
+        G19G20G21G22G23G24G25G26G27G28G29G30G31G32J01J02J03
+        J07R01R02R03R04R05R07R08R09R11R12R13R14R15R16R17R18
+        R19R20R21R22R24  0  0  0  0  0  0  0  0  0  0  0  0
++         0  0  0  0  0  0  0  0  0  0  0  0  0  0  0  0  0
++         0  0  0  0  0  0  0  0  0  0  0  0  0  0  0  0  0
++         0  0  0  0  0  0  0  0  0  0  0  0  0  0  0  0  0
++         0  0  0  0  0  0  0  0  0  0  0  0  0  0  0  0  0
++         0  0  0  0  0  0  0  0  0  0  0  0  0  0  0  0  0
++         0  0  0  0  0  0  0  0  0  0  0  0  0  0  0  0  0
++         0  0  0  0  0  0  0  0  0  0  0  0  0  0  0  0  0
++         0  0  0  0  0  0  0  0  0  0  0  0  0  0  0  0  0
%c M  cc GPS ccc cccc cccc cccc cccc ccccc ccccc ccccc ccccc
%c cc cc ccc ccc cccc cccc cccc cccc ccccc ccccc ccccc ccccc
%f  1.2500000  1.025000000  0.00000000000  0.000000000000000
%f  0.0000000  0.000000000  0.00000000000  0.000000000000000
%i    0    0    0    0      0      0      0      0         0
%i    0    0    0    0      0      0      0      0         0
/* INFORMATION & ANALYSIS CENTER (IAC)            FINAL DATA
/* S/V CLOCKS ARE ALIGNED TO GNSS TIME                      
/* G:C1WC2W R:C1PC2P E:C1XC5X C:C2IC6I J:C1CC2S             
/* PCV:IGS14_2148 OL/AL:FES2004  NONE     YN ORB:CoN CLK:CoN
*  2021 04 07  2 30  0.00000000
PC01 -34376.568018  24452.979955    211.887961   -584.223826
PC02   4460.217914  41889.522087  -1029.691101    779.728022
PC03 -14707.930029  39504.635040  -1120.122212   -424.336044
PC04 -39591.447949  14526.207416    -63.828087    563.591823
PC05  21970.515137  35981.223379   -724.544148     63.014911
PC06 -21753.925975  35416.355220   5712.135128    252.531279
PC07  -9161.141559  30750.656960  27840.916166    -94.610395
PC08 -19509.349496  17508.519322 -33019.237566   -893.847754
PC09 -11211.520280  35489.597267  19674.559496    613.972196
PC10   3495.806008  37979.934315  18651.500678    -60.241679
PC11 -14102.867699  22374.567667  -8894.817242   -824.156409
PC12 -22188.202559  14545.708215   8705.276037    924.039586
PC13  -3523.869429  22412.234330 -35434.084124    211.334075
PC14  -3404.411715  23662.059007 -14412.957391    403.255319
PC16 -19243.142882  36335.517851   8893.089839   -770.892928
PC19  -3661.463464 -26976.183613   6122.137569    789.475774
PC20   8933.533158 -17663.892723  19679.961090   -947.836297
PC21 -16780.149621  -2673.140432 -22108.811636   -927.363110
PC22 -14488.696754 -20900.349948 -11446.387670   -951.381188
PC23  21149.775378  13922.479299  11726.998677   -884.689367
PC24 -17851.562450   9662.744584  19148.375869   -805.723473
PC25   3533.208038  16834.958441  21962.698437   -936.476104
PC26 -27223.508840  -1713.026878   5968.758761    924.604431
PC27  21857.853096  -6261.502202 -16213.897421    511.250962
PC28  11286.651816  11125.680440 -22967.546618    -89.295508
PC29   5007.104875 -22147.410643  16219.487465    375.381493
PC30  19048.341753 -20409.264173   -458.564261    458.321258
PC32  16839.967103   2564.682878  22126.976367   -932.741267
PC33   3796.541979  26967.206756  -6124.134587   -942.370464
PC34 -18727.249701  20666.768785   -255.609639   -701.651944
PC35 -11427.918594 -11079.456019  22915.854243   -338.936599
PC36  -2766.851296 -16869.026453 -22037.488768   -733.720674
PC37  27255.361435   2936.111733  -5156.499110   -890.748668
PC38 -15188.191009  21246.930820 -33104.839947    140.663456
PC39 -15476.197471  37725.949085  10486.451282     30.084218
PC40    422.269254  36474.414986  21271.804812    148.620270
PC41  14510.220524  21036.554094  11258.676873   -940.240746
PC42  -9336.469226  17108.384056 -19929.080158   -928.241324
PC43  -5466.064211  22300.923408 -15847.575274   -674.058648
PC44 -21623.915096   6719.399055  16276.138967    124.794274
PC45 -21275.925434 -13781.321338 -11693.348405    407.079622
PC46  16919.155838 -10166.694524 -19710.731425    327.876424
PC60   7306.992396  41525.967258   -678.452099      0.741065
PE01  18092.014173  22227.529550   7380.514504  -1081.642759
PE02 -18179.153206 -22211.974541  -7279.604072    210.385355
PE03  -7533.449163 -23333.995793 -16569.645624   -417.331058
PE04  16579.434858   4309.069233  24149.564703   -744.861548
PE05   6080.251840 -28955.908935    859.900564   -290.873665
PE07 -15989.138852  17644.539640 -17579.824822   -522.425753
PE08 -16528.908681  -3823.338367 -24250.159839   6021.503887
PE09  15758.276760 -17865.409963  17568.208406   5709.342745
PE11  25998.137450 -13110.133472   5393.177581   6122.550360
PE12  26243.708482     83.188271 -13713.661951   5272.309338
PE13 -26131.242200  12961.183963  -4988.985650    414.657566
PE14  12550.917250 -22838.654454  -1704.075160  -1388.203552
PE15 -26217.126053     47.455869  13738.845631    820.755490
PE18  -2964.472208  28451.315890 -12276.045044  -1518.532612
PE19   5990.478461  24808.183079  15001.814063    245.931541
PE21   1469.275468  20334.843131  21451.250237   -657.904144
PE24  17226.131854  -5956.005071 -23333.104019   -833.604819
PE25  -1288.560111 -20260.535002 -21542.940886   -530.362291
PE26  -9895.228877  18289.700011 -21057.675061   1953.838076
PE27 -16657.252109   6613.306236  23558.503193     -5.809358
PE30 -24855.437592 -11714.283300  11017.269424   3045.423657
PE31  24858.966001  10893.000445 -11803.593459   -479.912649
PE33  10894.255295  12852.870958 -24332.118321   -467.289069
PE36  10663.011382 -18227.069233  20753.673429   -190.275793
PG01   6821.155782  13824.890249 -21922.050335    722.737016
PG02  17452.030429 -14233.466122  14769.667949   -593.341894
PG03  11946.118657  22859.471062  -6654.360933   -129.690978
PG04   1304.738999  22113.458195  14621.719878   -190.484327
PG05   2169.747505 -18277.908881  18932.830198    -38.363524
PG06  25568.679278  -6167.764808   3988.276972      5.446885
PG07  20453.235167   8416.579040  15398.428932    114.244796
PG08  -4374.646453  25016.528442  -7217.807300    -16.571185
PG09  10108.990741  13751.328135  20286.600425   -337.039697
PG10 -19472.161416  -5796.367381 -17132.420605    -96.796275
PG11   2333.791503  17573.910039 -20314.429970     22.524877
PG12  -7954.574295 -23645.886447  -9585.156494    -24.397436
PG13  13123.791600 -23009.660150     11.183496    116.877990
PG14  19414.699264   7113.490640 -16694.425099     97.658412
PG15   1072.336713 -25301.457331  -7733.277976   -157.913127
PG16  -6620.256409  15275.182401  20333.878212   -305.760719
PG17  16651.341600  -4100.079872 -19855.343557    422.288150
PG18 -22773.582026  -5944.003027  12360.148243    351.568602
PG19  18163.860373 -11787.372088 -15595.003529    -16.280498
PG20 -18530.559377 -19175.448490   1300.110504    523.435416
PG21  -1778.658906  15373.831218 -20808.028736    109.078033
PG22   5659.744487  21520.804427 -14435.653612   -643.682802
PG23 -20126.592601 -15043.898736  -8693.738275    114.776484
PG24  -1314.456918 -15891.334815 -21464.791371      0.085654
PG25 -17553.589091 -19973.364164   2262.145448    113.707652
PG26 -13912.321692   7533.069518  21300.498137     68.693242
PG27 -12322.829004  22907.956629   4097.601617   -108.127598
PG28  18093.980482   5666.186537 -17963.190374    590.625223
PG29  -8855.147421 -13553.053022  21000.209499   -325.529670
PG30  26422.759276   -125.435409   3791.114682   -409.309976
PG31 -24914.185452   7391.482640   6486.364895   -110.105274
PG32 -17068.614457   6383.970626 -19155.744825     22.034438
PJ01 -20320.120268  27820.651236 -19725.957487   -362.791722
PJ02 -26521.218904  21038.115731  30029.214368      4.919721
PJ03 -34482.621176  24266.017353   6415.130810     -2.938350
PJ07 -25396.630663  33646.551476    -18.432361     -0.007398
PR01  -1662.757109 -25275.325526   2951.998866     77.517183
PR02  -9504.245042 -16824.599388 -16638.938080    473.804761
PR03 -10849.603614   1449.985221 -22992.303827     33.758251
PR04  -5850.112437  18649.953843 -16355.144292     81.268205
PR05   2217.406449  25394.587112   -538.828817     69.525316
PR07  10789.186832  -2267.709979  23045.360466    -42.554492
PR08   5949.979713 -18689.835680  16378.662478    -58.395215
PR09  21573.036782  12430.666740   5720.658671    -13.315847
PR11  10636.865347  -6810.520829 -22155.713224      1.385503
PR12  -7886.887893 -13865.723902 -19891.612565    218.792701
PR13 -21312.023717 -12501.215114  -6364.814624    -53.066168
PR14 -22362.299366  -3731.128635  11685.564633     62.866452
PR15 -10367.873038   7011.321858  22241.193260    104.511342
PR16   8963.455266  13917.201474  19330.580598    -13.475288
PR17 -20926.913084   8221.715407  12084.449072    414.198481
PR18 -19189.907395  16106.238723  -4613.041931     72.355295
PR19  -8400.982562  15493.880572 -18438.020486   -138.785331
PR20  10346.093351   5207.736180 -22725.887445    -46.809503
PR21  21173.978681  -8938.444099 -11045.816408   -199.925710
PR22  18855.861370 -16287.334116   5694.828014   -106.527794
PR24 -11246.038791  -4964.129359  22367.203947     37.879437
EOF
